NORAD_CAT_ID,OBJECT_NAME,OBJECT_TYPE,EPOCH,MEAN_MOTION,ECCENTRICITY,INCLINATION,RA_OF_ASC_NODE,ARG_OF_PERICENTER,MEAN_ANOMALY,BSTAR,MEAN_MOTION_DOT,MEAN_MOTION_DDOT,TLE_LINE0,TLE_LINE1,TLE_LINE2,SEMIMAJOR_AXIS,PERIOD,APOGEE,PERIGEE,DECAYED
49759.0,STARLINK-3204,PAYLOAD,2022-05-07 22:00:00,15.08836761,0.0001669,53.2168,311.9339,46.2088,344.795,-0.00019036,-3.316e-05,0.0,0 STARLINK-3204,1 49759U 21115AM  22127.91667824 -.00003316  00000-0 -19036-3 0  9998,2 49759  53.2168 311.9339 0001669  46.2088 344.7950 15.08836761  3606,6917.89,95.438,540.91,538.601,0.0
49759.0,STARLINK-3204,PAYLOAD,2022-05-08 14:00:01,15.08848247,0.0001534,53.2171,308.9396,51.2254,2.9465,-0.00056996,-9.35e-05,0.0,0 STARLINK-3204,1 49759U 21115AM  22128.58334491 -.00009350  00000-0 -56996-3 0  9993,2 49759  53.2171 308.9396 0001534  51.2254   2.9465 15.08848247  3618,6917.855,95.437,540.781,538.659,0.0
49759.0,STARLINK-3204,PAYLOAD,2022-05-08 22:00:00,15.08833292,0.0001733,53.2171,307.4449,45.5888,20.1907,0.0002831,4.22e-05,0.0,0 STARLINK-3204,1 49759U 21115AM  22128.91667824  .00004220  00000-0  28310-3 0  9997,2 49759  53.2171 307.4449 0001733  45.5888  20.1907 15.08833292 25319,6917.901,95.438,540.965,538.567,0.0
49759.0,STARLINK-3204,PAYLOAD,2022-05-09 14:00:01,15.08849709,0.000167,53.2173,304.4506,53.4675,35.5428,-0.00083853,-0.00013612,0.0,0 STARLINK-3204,1 49759U 21115AM  22129.58335648 -.00013612  00000-0 -83853-3 0  9997,2 49759  53.2173 304.4506 0001670  53.4675  35.5428 15.08849709  3622,6917.851,95.437,540.871,538.56,0.0
49759.0,STARLINK-3204,PAYLOAD,2022-05-09 22:00:00,15.08829049,0.0001831,53.217,302.9558,47.4404,53.1146,0.0020475,0.00032439,0.0,0 STARLINK-3204,1 49759U 21115AM  22129.91667824  .00032439  00000-0  20475-2 0  9994,2 49759  53.2170 302.9558 0001831  47.4404  53.1146 15.08829049  3573,6917.9140000000025,95.438,541.0459999999998,538.512,0.0
49759.0,STARLINK-3204,PAYLOAD,2022-05-10 00:00:00,15.08852274,0.0001838,53.2168,302.5814,47.6724,145.7752,-0.00089713,-0.00014543,0.0,0 STARLINK-3204,1 49759U 21115AM  22130.00001157 -.00014543  00000-0 -89713-3 0  9996,2 49759  53.2168 302.5814 0001838  47.6724 145.7752 15.08852274 25475,6917.843000000003,95.437,540.979,538.436,0.0
49759.0,STARLINK-3204,PAYLOAD,2022-05-10 14:00:01,15.08851208,0.0001746,53.2172,299.9618,55.4092,68.3231,-0.0014311,-0.00022999,0.0,0 STARLINK-3204,1 49759U 21115AM  22130.58334491 -.00022999  00000-0 -14311-2 0  9994,2 49759  53.2172 299.9618 0001746  55.4092  68.3231 15.08851208  3603,6917.846,95.437,540.919,538.503,0.0
49759.0,STARLINK-3204,PAYLOAD,2022-05-10 18:00:00,15.0885081,0.0001824,53.2169,299.2146,51.1896,258.3428,-0.0027039,-0.00043077,0.0,0 STARLINK-3204,1 49759U 21115AM  22130.75001157 -.00043077  00000-0 -27039-2 0  9994,2 49759  53.2169 299.2146 0001824  51.1896 258.3428 15.08850810  3584,6917.847,95.437,540.974,538.451,0.0
49759.0,STARLINK-3204,PAYLOAD,2022-05-11 22:00:00,15.08815764,0.0001764999999999,53.2162,293.9776,47.63,122.4477,0.0032861,0.00052365,0.0,0 STARLINK-3204,1 49759U 21115AM  22131.91667824  .00052365  00000-0  32861-2 0  9999,2 49759  53.2162 293.9776 0001765  47.6300 122.4477 15.08815764 25769,6917.954000000002,95.439,541.04,538.5980000000002,0.0
49759.0,STARLINK-3204,PAYLOAD,2022-05-12 14:00:01,15.08883097,0.0001618,53.2162,290.9837,53.5239,139.7442,-0.0034534999999999,-0.00054897,0.0,0 STARLINK-3204,1 49759U 21115AM  22132.58334491 -.00054897  00000-0 -34535-2 0  9998,2 49759  53.2162 290.9837 0001618  53.5239 139.7442 15.08883097  1309,6917.749,95.435,540.7330000000002,538.494,0.0
49759.0,STARLINK-3204,PAYLOAD,2022-05-12 20:00:01,15.08831282,0.0001692,53.216,289.8624,47.3482,64.6536,0.0015,0.00023659,0.0,0 STARLINK-3204,1 49759U 21115AM  22132.83334491  .00023659  00000-0  15000-2 0  9992,2 49759  53.2160 289.8624 0001692  47.3482  64.6536 15.08831282 25902,6917.906999999997,95.438,540.943,538.602,0.0
49759.0,STARLINK-3204,PAYLOAD,2022-05-12 22:00:00,15.08822336,0.0001694,53.2157,289.4882,45.5405,159.3633,0.003027,0.00048193,0.0,0 STARLINK-3204,1 49759U 21115AM  22132.91667824  .00048193  00000-0  30270-2 0  9996,2 49759  53.2157 289.4882 0001694  45.5405 159.3633 15.08822336  1305,6917.934,95.439,540.971,538.627,0.0
49759.0,STARLINK-3204,PAYLOAD,2022-05-13 14:00:01,15.08847662,0.0001669,53.2158,286.4943,52.9837,175.1178,-0.0011289,-0.00018213,0.0,0 STARLINK-3204,1 49759U 21115AM  22133.58334491 -.00018213  00000-0 -11289-2 0  9992,2 49759  53.2158 286.4943 0001669  52.9837 175.1178 15.08847662 26029,6917.857,95.437,540.877,538.567,0.0
49759.0,STARLINK-3204,PAYLOAD,2022-05-13 22:00:00,15.0882227,0.0001735,53.2155,284.9986,45.8074,193.891,0.00065612,0.00010165,0.0,0 STARLINK-3204,1 49759U 21115AM  22133.91667824  .00010165  00000-0  65612-3 0  9994,2 49759  53.2155 284.9986 0001735  45.8074 193.8910 15.08822270  1307,6917.935,95.439,541.0,538.599,0.0
49759.0,STARLINK-3204,PAYLOAD,2022-05-14 06:00:00,15.08764803,0.0001684,53.2173,283.4863,57.6963,193.5387,0.0073392,0.00118238,0.0,0 STARLINK-3204,1 49759U 21115AM  22134.25001157  .00118238  00000-0  73392-2 0  9996,2 49759  53.2173 283.4863 0001684  57.6963 193.5387 15.08764803 26125,6918.11,95.442,541.14,538.81,0.0
49759.0,STARLINK-3204,PAYLOAD,2022-05-14 14:00:01,15.0885439,0.0001689,53.2158,282.0048,49.6693,213.1978,-0.0015425,-0.00024763,0.0,0 STARLINK-3204,1 49759U 21115AM  22134.58334491 -.00024763  00000-0 -15425-2 0  9996,2 49759  53.2158 282.0048 0001689  49.6693 213.1978 15.08854390  1303,6917.8359999999975,95.437,540.87,538.533,0.0
49759.0,STARLINK-3204,PAYLOAD,2022-05-14 16:00:00,15.08855774,0.0001771,53.2158,281.6311,47.5961,308.1715,-0.0022383,-0.0003575,0.0,0 STARLINK-3204,1 49759U 21115AM  22134.66667824 -.00035750  00000-0 -22383-2 0  9993,2 49759  53.2158 281.6311 0001771  47.5961 308.1715 15.08855774 26182,6917.831999999999,95.437,540.922,538.472,0.0
49759.0,STARLINK-3204,PAYLOAD,2022-05-14 22:00:00,15.08830896,0.0001838,53.2158,280.509,45.1703,229.3062,0.0011139,0.0001748,0.0,0 STARLINK-3204,1 49759U 21115AM  22134.91667824  .00017480  00000-0  11139-2 0  9996,2 49759  53.2158 280.5090 0001838  45.1703 229.3062 15.08830896  1300,6917.908,95.438,541.045,538.502,0.0
49759.0,STARLINK-3204,PAYLOAD,2022-05-15 06:00:00,15.08828124,0.0001737,53.2161,279.0107,52.0146,234.0578,0.0017523,0.00027701,0.0,0 STARLINK-3204,1 49759U 21115AM  22135.25001157  .00027701  00000-0  17523-2 0  9995,2 49759  53.2161 279.0107 0001737  52.0146 234.0578 15.08828124 26271,6917.917,95.438,540.9830000000002,538.58,0.0
49759.0,STARLINK-3204,PAYLOAD,2022-05-15 14:00:01,15.08845819,0.0001901,53.2164,277.5153,51.7223,245.9998,-0.0024218,-0.00038632,0.0,0 STARLINK-3204,1 49759U 21115AM  22135.58335648 -.00038632  00000-0 -24218-2 0  9992,2 49759  53.2164 277.5153 0001901  51.7223 245.9998 15.08845819  1307,6917.863,95.437,541.043,538.413,0.0
49759.0,STARLINK-3204,PAYLOAD,2022-05-15 22:00:00,15.08822184,0.0001946,53.2163,276.0195,45.5027,263.7573,0.0010685,0.0001675,0.0,0 STARLINK-3204,1 49759U 21115AM  22135.91667824  .00016750  00000-0  10685-2 0  9991,2 49759  53.2163 276.0195 0001946  45.5027 263.7573 15.08822184 26379,6917.935,95.439,541.146,538.4540000000002,0.0
49759.0,STARLINK-3204,PAYLOAD,2022-05-16 14:00:01,15.08868273,0.0001814,53.2171,273.0263,46.7241,285.6941,-0.0053623,-0.00084694,0.0,0 STARLINK-3204,1 49759U 21115AM  22136.58334491 -.00084694  00000-0 -53623-2 0  9999,2 49759  53.2171 273.0263 0001814  46.7241 285.6941 15.08868273  1303,6917.794,95.436,540.914,538.404,0.0
49759.0,STARLINK-3204,PAYLOAD,2022-05-16 22:00:00,15.08813675,0.0001813,53.2169,271.5303,39.421,304.5963,0.00054128,8.331e-05,0.0,0 STARLINK-3204,1 49759U 21115AM  22136.91667824  .00008331  00000-0  54128-3 0  9999,2 49759  53.2169 271.5303 0001813  39.4210 304.5963 15.08813675 26524,6917.9609999999975,95.439,541.08,538.572,0.0
49759.0,STARLINK-3204,PAYLOAD,2022-05-17 14:00:01,15.08854589,0.000179,53.2175,268.5375,42.8849,324.3382,-0.0014458,-0.00023234,0.0,0 STARLINK-3204,1 49759U 21115AM  22137.58335648 -.00023234  00000-0 -14458-2 0  9991,2 49759  53.2175 268.5375 0001790  42.8849 324.3382 15.08854589  1309,6917.8359999999975,95.437,540.939,538.4630000000002,0.0
49759.0,STARLINK-3204,PAYLOAD,2022-05-17 22:00:01,15.088599599999998,0.0001851,53.2171,267.0413,39.4502,339.3781,-0.0029459,-0.00046893,0.0,0 STARLINK-3204,1 49759U 21115AM  22137.91668981 -.00046893  00000-0 -29459-2 0  9990,2 49759  53.2171 267.0413 0001851  39.4502 339.3781 15.08859960  1305,6917.819,95.436,540.965,538.404,0.0
49759.0,STARLINK-3204,PAYLOAD,2022-05-18 06:00:00,15.08794607,0.0001611,53.2173,265.5436,45.6167,344.76,0.0043076,0.00068852,0.0,0 STARLINK-3204,1 49759U 21115AM  22138.25001157  .00068852  00000-0  43076-2 0  9992,2 49759  53.2173 265.5436 0001611  45.6167 344.7600 15.08794607 26724,6918.019,95.44,540.999,538.77,0.0
49759.0,STARLINK-3204,PAYLOAD,2022-05-18 14:00:01,15.08853174,0.0001816,53.2173,264.0489,42.559,359.3852,-0.0015077,-0.00024212,0.0,0 STARLINK-3204,1 49759U 21115AM  22138.58334491 -.00024212  00000-0 -15077-2 0  9992,2 49759  53.2173 264.0489 0001816  42.5590 359.3852 15.08853174  1302,6917.84,95.437,540.961,538.4490000000002,0.0
49759.0,STARLINK-3204,PAYLOAD,2022-05-18 22:00:00,15.08860192,0.0001935,53.2168,262.5526,42.344,11.2039,-0.0042234,-0.00066918,0.0,0 STARLINK-3204,1 49759U 21115AM  22138.91667824 -.00066918  00000-0 -42234-2 0  9992,2 49759  53.2168 262.5526 0001935  42.3440  11.2039 15.08860192 26828,6917.819,95.436,541.0219999999998,538.345,0.0
49759.0,STARLINK-3204,PAYLOAD,2022-05-19 14:00:01,15.08837292,0.0001958,53.2166,259.5603,47.3467,29.4136,-0.0011125,-0.00017949,0.0,0 STARLINK-3204,1 49759U 21115AM  22139.58335648 -.00017949  00000-0 -11125-2 0  9997,2 49759  53.2166 259.5603 0001958  47.3467  29.4136 15.08837292  1307,6917.889,95.438,541.1080000000002,538.399,0.0
